[
    {
        "Altitude(m)": 624792.804416583,
        "Argument of Periapsis(deg)": 0.0,
        "Eccentricity": 0.0,
        "Inclination(deg)": 60.0,
        "Latitude(deg)": -59.14718562950449,
        "Longitude(deg)": -60.97353442891222,
        "Mean Anomaly(deg)": -98.18179999999997,
        "RAAN(deg)": 145.0,
        "Satellite Name": "Test1 654",
        "Satellite Number": 654,
        "Semi-Major Axis(m)": 6980739.136638005,
        "Time(s)": 0
    },
    {
        "Altitude(m)": 624842.1961136765,
        "Argument of Periapsis(deg)": 0.00010418945913296404,
        "Eccentricity": 0.0,
        "Inclination(deg)": 60.0,
        "Latitude(deg)": -59.28926845559587,
        "Longitude(deg)": -59.84402677514761,
        "Mean Anomaly(deg)": -97.56169385453812,
        "RAAN(deg)": 144.99957995086027,
        "Satellite Name": "Test1 654",
        "Satellite Number": 654,
        "Semi-Major Axis(m)": 6980739.136638005,
        "Time(s)": 10
    }
]